{
  "norad_id": 55791,
  "name": "STARLINK-5807",
  "history": [
    {
      "epoch": "2026-03-28T21:48:13.966272Z",
      "apogee_km": 574.2371460652976,
      "perigee_km": 569.8752048283859,
      "latitude_deg": 1.7326383380700443e-05,
      "longitude_deg": 2.6743240288212555,
      "height_km": 574.5817348577225,
      "semi_major_axis_km": 6950.193175446841,
      "eccentricity": 0.0003138,
      "inclination_deg": 70.0005,
      "raan_deg": 156.0547,
      "arg_perigee_deg": 267.4266,
      "mean_anomaly_deg": 92.6534,
      "mean_motion_rev_day": 14.98329908
    },
    {
      "epoch": "2026-03-28T21:48:13.967136Z",
      "apogee_km": 574.2367985556375,
      "perigee_km": 569.875552338045,
      "latitude_deg": 1.1914301565548337e-05,
      "longitude_deg": 2.6743184599409915,
      "height_km": 574.5817192528959,
      "semi_major_axis_km": 6950.193175446841,
      "eccentricity": 0.00031375,
      "inclination_deg": 70.0005,
      "raan_deg": 156.0547,
      "arg_perigee_deg": 267.4266,
      "mean_anomaly_deg": 92.6534,
      "mean_motion_rev_day": 14.98329908
    },
    {
      "epoch": "2026-03-30T04:14:47.151168Z",
      "apogee_km": 574.3310398971034,
      "perigee_km": 569.7703267393099,
      "latitude_deg": 6.69712594050908e-05,
      "longitude_deg": -98.41225888255687,
      "height_km": 574.5586219878297,
      "semi_major_axis_km": 6950.187683318207,
      "eccentricity": 0.0003281,
      "inclination_deg": 69.9998,
      "raan_deg": 152.8566,
      "arg_perigee_deg": 267.984,
      "mean_anomaly_deg": 92.0944,
      "mean_motion_rev_day": 14.98331684
    },
    {
      "epoch": "2026-03-30T12:15:27.374400Z",
      "apogee_km": 574.3350938344256,
      "perigee_km": 569.7593705433219,
      "latitude_deg": -1.0478025940996022e-05,
      "longitude_deg": 140.24940947835995,
      "height_km": 574.5641329474107,
      "semi_major_axis_km": 6950.1842321888735,
      "eccentricity": 0.00032918,
      "inclination_deg": 69.9998,
      "raan_deg": 152.0149,
      "arg_perigee_deg": 267.7665,
      "mean_anomaly_deg": 92.3117,
      "mean_motion_rev_day": 14.983328
    },
    {
      "epoch": "2026-03-30T21:52:15.727296Z",
      "apogee_km": 574.2970916962258,
      "perigee_km": 569.8015721730044,
      "latitude_deg": -5.191752350935584e-05,
      "longitude_deg": -5.3571850557460765,
      "height_km": 574.5335719272002,
      "semi_major_axis_km": 6950.186331934615,
      "eccentricity": 0.00032341,
      "inclination_deg": 70.0003,
      "raan_deg": 151.0046,
      "arg_perigee_deg": 268.5591,
      "mean_anomaly_deg": 91.5197,
      "mean_motion_rev_day": 14.98332121
    },
    {
      "epoch": "2026-03-31T07:29:04.142400Z",
      "apogee_km": 574.3447540588204,
      "perigee_km": 569.7661062896696,
      "latitude_deg": 8.217902715281775e-06,
      "longitude_deg": -150.96340265435452,
      "height_km": 574.5791277328588,
      "semi_major_axis_km": 6950.192430174245,
      "eccentricity": 0.00032939,
      "inclination_deg": 69.9995,
      "raan_deg": 149.9949,
      "arg_perigee_deg": 267.5971,
      "mean_anomaly_deg": 92.4811,
      "mean_motion_rev_day": 14.98330149
    },
    {
      "epoch": "2026-04-01T20:20:09.806208Z",
      "apogee_km": 574.3333122222684,
      "perigee_km": 569.7878829934325,
      "latitude_deg": -4.351394790171365e-05,
      "longitude_deg": 10.878341093301078,
      "height_km": 574.5519239840087,
      "semi_major_axis_km": 6950.19759760785,
      "eccentricity": 0.000327,
      "inclination_deg": 69.9997,
      "raan_deg": 146.1237,
      "arg_perigee_deg": 268.3959,
      "mean_anomaly_deg": 91.6825,
      "mean_motion_rev_day": 14.98328478
    },
    {
      "epoch": "2026-04-02T20:22:10.450848Z",
      "apogee_km": 574.2195963618051,
      "perigee_km": 569.8910165933321,
      "latitude_deg": 5.16864240784497e-05,
      "longitude_deg": 6.863969053370853,
      "height_km": 574.5649991550887,
      "semi_major_axis_km": 6950.192306477568,
      "eccentricity": 0.0003114,
      "inclination_deg": 69.9999,
      "raan_deg": 143.599,
      "arg_perigee_deg": 267.8253,
      "mean_anomaly_deg": 92.255,
      "mean_motion_rev_day": 14.98330189
    },
    {
      "epoch": "2026-04-03T12:23:30.838560Z",
      "apogee_km": 574.3986623984019,
      "perigee_km": 569.6988078006143,
      "latitude_deg": -5.6134429564189485e-05,
      "longitude_deg": 124.18796758196606,
      "height_km": 574.5003892457344,
      "semi_major_axis_km": 6950.185735099508,
      "eccentricity": 0.00033811,
      "inclination_deg": 69.9995,
      "raan_deg": 141.916,
      "arg_perigee_deg": 269.4183,
      "mean_anomaly_deg": 90.6588,
      "mean_motion_rev_day": 14.98332314
    },
    {
      "epoch": "2026-04-04T20:26:13.049952Z",
      "apogee_km": 574.4307878958298,
      "perigee_km": 569.7157652442056,
      "latitude_deg": 6.267503115136528e-05,
      "longitude_deg": -1.1716148533092332,
      "height_km": 574.4710650684502,
      "semi_major_axis_km": 6950.210276570017,
      "eccentricity": 0.0003392,
      "inclination_deg": 69.9992,
      "raan_deg": 138.5483,
      "arg_perigee_deg": 270.7284,
      "mean_anomaly_deg": 89.3487,
      "mean_motion_rev_day": 14.98324378
    },
    {
      "epoch": "2026-04-05T10:51:25.625088Z",
      "apogee_km": 574.5070583973966,
      "perigee_km": 569.6274589914528,
      "latitude_deg": -7.461592067949864e-05,
      "longitude_deg": 140.41992317836662,
      "height_km": 574.4559990539706,
      "semi_major_axis_km": 6950.204258694424,
      "eccentricity": 0.00035104,
      "inclination_deg": 69.9992,
      "raan_deg": 137.0345,
      "arg_perigee_deg": 270.9192,
      "mean_anomaly_deg": 89.1564,
      "mean_motion_rev_day": 14.98326324
    },
    {
      "epoch": "2026-04-06T04:28:54.375744Z",
      "apogee_km": 574.5047483569915,
      "perigee_km": 569.6536364590147,
      "latitude_deg": 5.114727947112597e-05,
      "longitude_deg": -126.52504591707218,
      "height_km": 574.3998760938588,
      "semi_major_axis_km": 6950.216192408003,
      "eccentricity": 0.00034899,
      "inclination_deg": 69.9992,
      "raan_deg": 135.1831,
      "arg_perigee_deg": 272.5319,
      "mean_anomaly_deg": 87.5441,
      "mean_motion_rev_day": 14.98322465
    },
    {
      "epoch": "2026-04-07T12:31:35.055264Z",
      "apogee_km": 574.3786808825371,
      "perigee_km": 569.7330329731094,
      "latitude_deg": 2.926594268009346e-05,
      "longitude_deg": 108.12261829087201,
      "height_km": 574.3445486410819,
      "semi_major_axis_km": 6950.192856927823,
      "eccentricity": 0.00033421,
      "inclination_deg": 69.9995,
      "raan_deg": 131.8163,
      "arg_perigee_deg": 273.4314,
      "mean_anomaly_deg": 86.6463,
      "mean_motion_rev_day": 14.98330011
    },
    {
      "epoch": "2026-04-07T18:56:07.319904Z",
      "apogee_km": 574.4098553035274,
      "perigee_km": 569.7004051160984,
      "latitude_deg": 3.907936926283189e-05,
      "longitude_deg": 11.051378327362716,
      "height_km": 574.3272666278915,
      "semi_major_axis_km": 6950.192130209813,
      "eccentricity": 0.0003388,
      "inclination_deg": 69.9992,
      "raan_deg": 131.1427,
      "arg_perigee_deg": 273.7889,
      "mean_anomaly_deg": 86.2883,
      "mean_motion_rev_day": 14.98330246
    },
    {
      "epoch": "2026-04-08T10:57:27.948672Z",
      "apogee_km": 574.37006224373,
      "perigee_km": 569.7069115025679,
      "latitude_deg": -1.3113646066938386e-05,
      "longitude_deg": 128.3745877466433,
      "height_km": 574.3385226166929,
      "semi_major_axis_km": 6950.175486873149,
      "eccentricity": 0.00033547,
      "inclination_deg": 69.999,
      "raan_deg": 129.4599,
      "arg_perigee_deg": 273.139,
      "mean_anomaly_deg": 86.9385,
      "mean_motion_rev_day": 14.98335628
    },
    {
      "epoch": "2026-04-09T10:59:28.659840Z",
      "apogee_km": 574.3755519592942,
      "perigee_km": 569.7300450979583,
      "latitude_deg": -2.9171911603649974e-05,
      "longitude_deg": 124.35879368227279,
      "height_km": 574.3906643402304,
      "semi_major_axis_km": 6950.189798528626,
      "eccentricity": 0.0003342,
      "inclination_deg": 69.9988,
      "raan_deg": 126.9341,
      "arg_perigee_deg": 272.2162,
      "mean_anomaly_deg": 87.8614,
      "mean_motion_rev_day": 14.98331
    },
    {
      "epoch": "2026-04-10T04:36:57.304224Z",
      "apogee_km": 574.4099574963875,
      "perigee_km": 569.7070382108095,
      "latitude_deg": 5.608151119838974e-05,
      "longitude_deg": -142.5857466556332,
      "height_km": 574.4296212284644,
      "semi_major_axis_km": 6950.195497853599,
      "eccentricity": 0.00033833,
      "inclination_deg": 69.9986,
      "raan_deg": 125.0827,
      "arg_perigee_deg": 271.3789,
      "mean_anomaly_deg": 88.6983,
      "mean_motion_rev_day": 14.98329157
    },
    {
      "epoch": "2026-04-11T19:04:12.117216Z",
      "apogee_km": 574.4438241835423,
      "perigee_km": 569.9066603517895,
      "latitude_deg": -1.9960850898886607e-05,
      "longitude_deg": -5.016252522274719,
      "height_km": 574.8482341501594,
      "semi_major_axis_km": 6950.312242267665,
      "eccentricity": 0.0003264,
      "inclination_deg": 69.9987,
      "raan_deg": 121.0432,
      "arg_perigee_deg": 263.7901,
      "mean_anomaly_deg": 96.2886,
      "mean_motion_rev_day": 14.98291406
    },
    {
      "epoch": "2026-04-12T11:05:31.957152Z",
      "apogee_km": 574.3985878636931,
      "perigee_km": 569.7302765657032,
      "latitude_deg": -2.7296005035683036e-05,
      "longitude_deg": 112.30877040758025,
      "height_km": 574.4286087432878,
      "semi_major_axis_km": 6950.201432214698,
      "eccentricity": 0.00033584,
      "inclination_deg": 69.9987,
      "raan_deg": 119.3589,
      "arg_perigee_deg": 271.5594,
      "mean_anomaly_deg": 88.518,
      "mean_motion_rev_day": 14.98327238
    }
  ]
}